[{"OBJECT_NAME":"SVYATOBOR 1 (RS60S)","OBJECT_ID":"2023-091X","EPOCH":"2026-03-09T23:06:11.081664","MEAN_MOTION":15.2482043,"ECCENTRICITY":0.00111996,"INCLINATION":97.5206,"RA_OF_ASC_NODE":132.3062,"ARG_OF_PERICENTER":84.4206,"MEAN_ANOMALY":275.8308,"EPHEMERIS_TYPE":0,"CLASSIFICATION_TYPE":"U","NORAD_CAT_ID":57187,"ELEMENT_SET_NO":999,"REV_AT_EPOCH":14918,"BSTAR":0.00046454276,"MEAN_MOTION_DOT":0.00011484,"MEAN_MOTION_DDOT":0},{"OBJECT_NAME":"FLOCK 4G-10","OBJECT_ID":"2025-009BP","EPOCH":"2026-03-09T16:59:55.292640","MEAN_MOTION":15.27155944,"ECCENTRICITY":0.00034694,"INCLINATION":97.3967,"RA_OF_ASC_NODE":150.5883,"ARG_OF_PERICENTER":341.4844,"MEAN_ANOMALY":18.6269,"EPHEMERIS_TYPE":0,"CLASSIFICATION_TYPE":"U","NORAD_CAT_ID":62670,"ELEMENT_SET_NO":999,"REV_AT_EPOCH":12134,"BSTAR":0.00052624432,"MEAN_MOTION_DOT":0.00013952,"MEAN_MOTION_DDOT":0}]
